[{"OBJECT_NAME":"YAOGAN-30 02C","OBJECT_ID":"2017-058C","EPOCH":"2026-03-09T23:23:41.320320","MEAN_MOTION":15.0385567,"ECCENTRICITY":0.00042194,"INCLINATION":34.9965,"RA_OF_ASC_NODE":266.8068,"ARG_OF_PERICENTER":49.9722,"MEAN_ANOMALY":310.1357,"EPHEMERIS_TYPE":0,"CLASSIFICATION_TYPE":"U","NORAD_CAT_ID":42947,"ELEMENT_SET_NO":999,"REV_AT_EPOCH":46087,"BSTAR":0.00031396475,"MEAN_MOTION_DOT":4.384e-5,"MEAN_MOTION_DDOT":0},{"OBJECT_NAME":"STARLINK-34923","OBJECT_ID":"2025-179N","EPOCH":"2026-03-09T16:30:15.046560","MEAN_MOTION":15.0565355,"ECCENTRICITY":0.0001377,"INCLINATION":97.6029,"RA_OF_ASC_NODE":112.8951,"ARG_OF_PERICENTER":155.5655,"MEAN_ANOMALY":204.5637,"EPHEMERIS_TYPE":0,"CLASSIFICATION_TYPE":"U","NORAD_CAT_ID":65247,"ELEMENT_SET_NO":999,"REV_AT_EPOCH":3186,"BSTAR":0.00024357293,"MEAN_MOTION_DOT":3.456e-5,"MEAN_MOTION_DDOT":0}]
